{"type": "FeatureCollection", "features": [ {"type": "Feature", "properties": {"norad_id": 66616, "name": "STARLINK-35391", "group": "last-30-days", "lat": -26.867442622625283, "lon": 80.21094907451578, "alt_km": 367.98090846476225, "timestamp": "2025-12-06T20:37:54.814164+00:00", "meta": {"OBJECT_NAME": "STARLINK-35391", "OBJECT_ID": "2025-270AE", "EPOCH": "2025-12-06T14:00:01.999872", "MEAN_MOTION": 15.68505211, "ECCENTRICITY": 0.00015733, "INCLINATION": 42.9991, "RA_OF_ASC_NODE": 228.9349, "ARG_OF_PERICENTER": 262.4645, "MEAN_ANOMALY": 197.4916, "EPHEMERIS_TYPE": 0, "CLASSIFICATION_TYPE": "U", "NORAD_CAT_ID": 66616, "ELEMENT_SET_NO": 999, "REV_AT_EPOCH": 352, "BSTAR": -0.018446992, "MEAN_MOTION_DOT": -0.01904805, "MEAN_MOTION_DDOT": 0}, "tle": {"line1": "1 66616U 25270AE  25340.58335648 -.01904805  00000+0 -18447-1 0  9990", "line2": "2 66616  42.9991 228.9349 0001573 262.4645 197.4916 15.68505211  3524"}}, "geometry": {"type": "Point", "coordinates": [80.21094907451578, -26.867442622625283]}}, {"type": "Feature", "properties": {"norad_id": 66617, "name": "STARLINK-35940", "group": "last-30-days", "lat": 48.21901525502646, "lon": -21.13733994362356, "alt_km": 339.51460834345653, "timestamp": "2025-12-06T20:37:54.814175+00:00", "meta": {"OBJECT_NAME": "STARLINK-35940", "OBJECT_ID": "2025-271A", "EPOCH": "2025-12-06T14:00:01.999872", "MEAN_MOTION": 15.74115378, "ECCENTRICITY": 0.00015886, "INCLINATION": 53.158, "RA_OF_ASC_NODE": 217.2848, "ARG_OF_PERICENTER": 88.021, "MEAN_ANOMALY": 256.4714, "EPHEMERIS_TYPE": 0, "CLASSIFICATION_TYPE": "U", "NORAD_CAT_ID": 66617, "ELEMENT_SET_NO": 999, "REV_AT_EPOCH": 325, "BSTAR": 0.00076468165, "MEAN_MOTION_DOT": 0.00112508, "MEAN_MOTION_DDOT": 0}, "tle": {"line1": "1 66617U 25271A   25340.58335648  .00112508  00000+0  76468-3 0  9999", "line2": "2 66617  53.1580 217.2848 0001588  88.0210 256.4714 15.74115378  3254"}}, "geometry": {"type": "Point", "coordinates": [-21.13733994362356, 48.21901525502646]}}, {"type": "Feature", "properties": {"norad_id": 66618, "name": "STARLINK-35970", "group": "last-30-days", "lat": 12.245931038387768, "lon": 26.434790495707926, "alt_km": 345.8815198572547, "timestamp": "2025-12-06T20:37:54.814186+00:00", "meta": {"OBJECT_NAME": "STARLINK-35970", "OBJECT_ID": "2025-271B", "EPOCH": "2025-12-06T14:00:01.999872", "MEAN_MOTION": 15.74233486, "ECCENTRICITY": 9.506e-05, "INCLINATION": 53.158, "RA_OF_ASC_NODE": 217.1724, "ARG_OF_PERICENTER": 89.5731, "MEAN_ANOMALY": 308.1568, "EPHEMERIS_TYPE": 0, "CLASSIFICATION_TYPE": "U", "NORAD_CAT_ID": 66618, "ELEMENT_SET_NO": 999, "REV_AT_EPOCH": 325, "BSTAR": -0.00026765273, "MEAN_MOTION_DOT": -0.00039718, "MEAN_MOTION_DDOT": 0}, "tle": {"line1": "1 66618U 25271B   25340.58335648 -.00039718  00000+0 -26765-3 0  9998", "line2": "2 66618  53.1580 217.1724 0000950  89.5731 308.1568 15.74233486  3256"}}, "geometry": {"type": "Point", "coordinates": [26.434790495707926, 12.245931038387768]}}, {"type": "Feature", "properties": {"norad_id": 66619, "name": "STARLINK-35951", "group": "last-30-days", "lat": 44.450156060904085, "lon": -11.45625860458566, "alt_km": 340.67691574994296, "timestamp": "2025-12-06T20:37:54.814199+00:00", "meta": {"OBJECT_NAME": "STARLINK-35951", "OBJECT_ID": "2025-271C", "EPOCH": "2025-12-06T14:00:01.999872", "MEAN_MOTION": 15.74145198, "ECCENTRICITY": 5.42e-05, "INCLINATION": 53.1578, "RA_OF_ASC_NODE": 217.268, "ARG_OF_PERICENTER": 105.5706, "MEAN_ANOMALY": 246.5724, "EPHEMERIS_TYPE": 0, "CLASSIFICATION_TYPE": "U", "NORAD_CAT_ID": 66619, "ELEMENT_SET_NO": 999, "REV_AT_EPOCH": 325, "BSTAR": 0.00049155556, "MEAN_MOTION_DOT": 0.00071839, "MEAN_MOTION_DDOT": 0}, "tle": {"line1": "1 66619U 25271C   25340.58335648  .00071839  00000+0  49156-3 0  9996", "line2": "2 66619  53.1578 217.2680 0000542 105.5706 246.5724 15.74145198  3255"}}, "geometry": {"type": "Point", "coordinates": [-11.45625860458566, 44.450156060904085]}}, {"type": "Feature", "properties": {"norad_id": 66620, "name": "STARLINK-35936", "group": "last-30-days", "lat": 47.35522739678229, "lon": -18.58975905195244, "alt_km": 339.8233358632315, "timestamp": "2025-12-06T20:37:54.814210+00:00", "meta": {"OBJECT_NAME": "STARLINK-35936", "OBJECT_ID": "2025-271D", "EPOCH": "2025-12-06T14:00:01.999872", "MEAN_MOTION": 15.74132334, "ECCENTRICITY": 0.00012314, "INCLINATION": 53.1582, "RA_OF_ASC_NODE": 217.2806, "ARG_OF_PERICENTER": 93.8758, "MEAN_ANOMALY": 252.5244, "EPHEMERIS_TYPE": 0, "CLASSIFICATION_TYPE": "U", "NORAD_CAT_ID": 66620, "ELEMENT_SET_NO": 999, "REV_AT_EPOCH": 325, "BSTAR": 0.00062759381, "MEAN_MOTION_DOT": 0.00092066, "MEAN_MOTION_DDOT": 0}, "tle": {"line1": "1 66620U 25271D   25340.58335648  .00092066  00000+0  62759-3 0  9997", "line2": "2 66620  53.1582 217.2806 0001231  93.8758 252.5244 15.74132334  3256"}}, "geometry": {"type": "Point", "coordinates": [-18.58975905195244, 47.35522739678229]}}, {"type": "Feature", "properties": {"norad_id": 66621, "name": "STARLINK-35847", "group": "last-30-days", "lat": 9.429056716106878, "lon": 28.640118675759144, "alt_km": 346.3449450047865, "timestamp": "2025-12-06T20:37:54.814221+00:00", "meta": {"OBJECT_NAME": "STARLINK-35847", "OBJECT_ID": "2025-271E", "EPOCH": "2025-12-06T14:00:01.999872", "MEAN_MOTION": 15.74156603, "ECCENTRICITY": 0.00010648, "INCLINATION": 53.1579, "RA_OF_ASC_NODE": 217.1646, "ARG_OF_PERICENTER": 97.3895, "MEAN_ANOMALY": 303.9533, "EPHEMERIS_TYPE": 0, "CLASSIFICATION_TYPE": "U", "NORAD_CAT_ID": 66621, "ELEMENT_SET_NO": 999, "REV_AT_EPOCH": 325, "BSTAR": 0.00019447, "MEAN_MOTION_DOT": 0.00027906, "MEAN_MOTION_DDOT": 0}, "tle": {"line1": "1 66621U 25271E   25340.58335648  .00027906  00000+0  19447-3 0  9995", "line2": "2 66621  53.1579 217.1646 0001064  97.3895 303.9533 15.74156603  3256"}}, "geometry": {"type": "Point", "coordinates": [28.640118675759144, 9.429056716106878]}}, {"type": "Feature", "properties": {"norad_id": 66622, "name": "STARLINK-35950", "group": "last-30-days", "lat": 43.381392332766616, "lon": -9.226633784219072, "alt_km": 340.3580846141185, "timestamp": "2025-12-06T20:37:54.814231+00:00", "meta": {"OBJECT_NAME": "STARLINK-35950", "OBJECT_ID": "2025-271F", "EPOCH": "2025-12-06T14:00:01.999872", "MEAN_MOTION": 15.74152255, "ECCENTRICITY": 0.00014646, "INCLINATION": 53.158, "RA_OF_ASC_NODE": 217.2642, "ARG_OF_PERICENTER": 90.3222, "MEAN_ANOMALY": 263.7429, "EPHEMERIS_TYPE": 0, "CLASSIFICATION_TYPE": "U", "NORAD_CAT_ID": 66622, "ELEMENT_SET_NO": 999, "REV_AT_EPOCH": 325, "BSTAR": 0.00030667565, "MEAN_MOTION_DOT": 0.0004445, "MEAN_MOTION_DDOT": 0}, "tle": {"line1": "1 66622U 25271F   25340.58335648  .00044450  00000+0  30668-3 0  9997", "line2": "2 66622  53.1580 217.2642 0001464  90.3222 263.7429 15.74152255  3253"}}, "geometry": {"type": "Point", "coordinates": [-9.226633784219072, 43.381392332766616]}}, {"type": "Feature", "properties": {"norad_id": 66623, "name": "STARLINK-35920", "group": "last-30-days", "lat": 41.17250125204067, "lon": -5.092891498899343, "alt_km": 340.6523161601526, "timestamp": "2025-12-06T20:37:54.814276+00:00", "meta": {"OBJECT_NAME": "STARLINK-35920", "OBJECT_ID": "2025-271G", "EPOCH": "2025-12-06T14:00:01.999872", "MEAN_MOTION": 15.74111426, "ECCENTRICITY": 0.0001211, "INCLINATION": 53.1575, "RA_OF_ASC_NODE": 217.2564, "ARG_OF_PERICENTER": 125.1816, "MEAN_ANOMALY": 232.6674, "EPHEMERIS_TYPE": 0, "CLASSIFICATION_TYPE": "U", "NORAD_CAT_ID": 66623, "ELEMENT_SET_NO": 999, "REV_AT_EPOCH": 325, "BSTAR": 0.0012250247, "MEAN_MOTION_DOT": 0.00182096, "MEAN_MOTION_DDOT": 0}, "tle": {"line1": "1 66623U 25271G   25340.58335648  .00182096  00000+0  12250-2 0  9993", "line2": "2 66623  53.1575 217.2564 0001211 125.1816 232.6674 15.74111426  3259"}}, "geometry": {"type": "Point", "coordinates": [-5.092891498899343, 41.17250125204067]}}, {"type": "Feature", "properties": {"norad_id": 66624, "name": "STARLINK-35927", "group": "last-30-days", "lat": 42.30678830042018, "lon": -7.143957622615532, "alt_km": 341.07672451550843, "timestamp": "2025-12-06T20:37:54.814289+00:00", "meta": {"OBJECT_NAME": "STARLINK-35927", "OBJECT_ID": "2025-271H", "EPOCH": "2025-12-06T14:00:01.999872", "MEAN_MOTION": 15.74092298, "ECCENTRICITY": 4.731e-05, "INCLINATION": 53.158, "RA_OF_ASC_NODE": 217.2603, "ARG_OF_PERICENTER": 86.4979, "MEAN_ANOMALY": 269.4596, "EPHEMERIS_TYPE": 0, "CLASSIFICATION_TYPE": "U", "NORAD_CAT_ID": 66624, "ELEMENT_SET_NO": 999, "REV_AT_EPOCH": 325, "BSTAR": 0.0012854436, "MEAN_MOTION_DOT": 0.00191161, "MEAN_MOTION_DDOT": 0}, "tle": {"line1": "1 66624U 25271H   25340.58335648  .00191161  00000+0  12854-2 0  9997", "line2": "2 66624  53.1580 217.2603 0000473  86.4979 269.4596 15.74092298  3254"}}, "geometry": {"type": "Point", "coordinates": [-7.143957622615532, 42.30678830042018]}}, {"type": "Feature", "properties": {"norad_id": 66625, "name": "STARLINK-35929", "group": "last-30-days", "lat": 39.96085408460422, "lon": -3.042206533916655, "alt_km": 341.0421014278154, "timestamp": "2025-12-06T20:37:54.814303+00:00", "meta": {"OBJECT_NAME": "STARLINK-35929", "OBJECT_ID": "2025-271J", "EPOCH": "2025-12-06T14:00:01.999872", "MEAN_MOTION": 15.74153174, "ECCENTRICITY": 0.00011357, "INCLINATION": 53.1579, "RA_OF_ASC_NODE": 217.2524, "ARG_OF_PERICENTER": 99.6254, "MEAN_ANOMALY": 260.1838, "EPHEMERIS_TYPE": 0, "CLASSIFICATION_TYPE": "U", "NORAD_CAT_ID": 66625, "ELEMENT_SET_NO": 999, "REV_AT_EPOCH": 325, "BSTAR": 0.00035463718, "MEAN_MOTION_DOT": 0.00051546, "MEAN_MOTION_DDOT": 0}, "tle": {"line1": "1 66625U 25271J   25340.58335648  .00051546  00000+0  35464-3 0  9993", "line2": "2 66625  53.1579 217.2524 0001135  99.6254 260.1838 15.74153174  3251"}}, "geometry": {"type": "Point", "coordinates": [-3.042206533916655, 39.96085408460422]}}]}